NORAD_CAT_ID,OBJECT_NAME,OBJECT_TYPE,EPOCH,MEAN_MOTION,ECCENTRICITY,INCLINATION,RA_OF_ASC_NODE,ARG_OF_PERICENTER,MEAN_ANOMALY,BSTAR,MEAN_MOTION_DOT,MEAN_MOTION_DDOT,TLE_LINE0,TLE_LINE1,TLE_LINE2,SEMIMAJOR_AXIS,PERIOD,APOGEE,PERIGEE,DECAYED
53627.0,STARLINK-4595,PAYLOAD,2023-04-16 22:23:23,15.08852824,0.0001036,53.2157,302.295,56.697,303.4121,9.6509e-05,1.249e-05,0.0,0 STARLINK-4595,1 53627U 22104AR  23106.93291581  .00001249  00000-0  96509-4 0  9991,2 53627  53.2157 302.2950 0001036  56.6970 303.4121 15.08852824 35388,6917.841,95.437,540.423,538.99,0.0
53627.0,STARLINK-4595,PAYLOAD,2023-04-17 12:41:53,15.08826912,0.000104,53.2168,299.6199,51.0144,309.0941,-2.5466e-05,-6.93e-06,0.0,0 STARLINK-4595,1 53627U 22104AR  23107.52909639 -.00000693  00000-0 -25466-4 0  9995,2 53627  53.2168 299.6199 0001040  51.0144 309.0941 15.08826912 35472,6917.92,95.438,540.505,539.066,0.0
53627.0,STARLINK-4595,PAYLOAD,2023-04-17 19:03:26,15.08838684,0.0001245,53.2166,298.4288,72.6289,287.4839,-3.0914e-05,-7.8e-06,0.0,0 STARLINK-4595,1 53627U 22104AR  23107.79405094 -.00000780  00000-0 -30914-4 0  9991,2 53627  53.2166 298.4288 0001245  72.6289 287.4839 15.08838684 35511,6917.884,95.438,540.611,538.888,0.0
53627.0,STARLINK-4595,PAYLOAD,2023-04-18 06:11:08,15.0883541,0.0001157,53.2161,296.3479,65.3301,294.7812,-6.4208e-05,-1.309e-05,0.0,0 STARLINK-4595,1 53627U 22104AR  23108.25773260 -.00001309  00000-0 -64208-4 0  9997,2 53627  53.2161 296.3479 0001157  65.3301 294.7812 15.08835410 36271,6917.894,95.438,540.56,538.959,0.0
53627.0,STARLINK-4595,PAYLOAD,2023-04-18 17:18:49,15.08843216,0.0001138,53.2173,294.2658,63.6591,296.4518,-0.00010906,-2.023e-05,0.0,0 STARLINK-4595,1 53627U 22104AR  23108.72141005 -.00002023  00000-0 -10906-3 0  9994,2 53627  53.2173 294.2658 0001138  63.6591 296.4518 15.08843216 36344,6917.871,95.437,540.523,538.948,0.0
53627.0,STARLINK-4595,PAYLOAD,2023-04-18 22:04:58,15.08848958,0.0001188,53.2165,293.3724,71.2499,288.8622,-5.2169e-05,-1.118e-05,0.0,0 STARLINK-4595,1 53627U 22104AR  23108.92012383 -.00001118  00000-0 -52169-4 0  9994,2 53627  53.2165 293.3724 0001188  71.2499 288.8622 15.08848958 35681,6917.853,95.437,540.54,538.896,0.0
53627.0,STARLINK-4595,PAYLOAD,2023-04-19 12:23:27,15.08826485,0.0001182,53.2161,290.6946,79.5975,280.515,6.7613e-05,7.88e-06,0.0,0 STARLINK-4595,1 53627U 22104AR  23109.51629519  .00000788  00000-0  67613-4 0  9995,2 53627  53.2161 290.6946 0001182  79.5975 280.5150 15.08826485 35773,6917.922,95.438,540.604,538.969,0.0
53627.0,STARLINK-4595,PAYLOAD,2023-04-19 17:09:37,15.08835023,0.0001152,53.2155,289.803,89.6229,270.4896,1.2934e-05,-8.2e-07,0.0,0 STARLINK-4595,1 53627U 22104AR  23109.71501300 -.00000082  00000-0  12934-4 0  9998,2 53627  53.2155 289.8030 0001152  89.6229 270.4896 15.08835023 36494,6917.896,95.438,540.558,538.964,0.0
53627.0,STARLINK-4595,PAYLOAD,2023-04-20 12:14:15,15.08831843,0.0001142,53.2175,286.2394,80.2425,279.8696,3.864e-05,3.27e-06,0.0,0 STARLINK-4595,1 53627U 22104AR  23110.50989622  .00000327  00000-0  38640-4 0  9997,2 53627  53.2175 286.2394 0001142  80.2425 279.8696 15.08831843 36615,6917.905,95.438,540.56,538.98,0.0
53627.0,STARLINK-4595,PAYLOAD,2023-04-20 18:35:47,15.0884307,0.0001178,53.216,285.0487,87.9104,272.2023,9.1365e-05,1.167e-05,0.0,0 STARLINK-4595,1 53627U 22104AR  23110.77484961  .00001167  00000-0  91365-4 0  9998,2 53627  53.2160 285.0487 0001178  87.9104 272.2023 15.08843070 36656,6917.871,95.437,540.551,538.921,0.0
53627.0,STARLINK-4595,PAYLOAD,2023-04-21 04:08:07,15.08825358,0.0001756,53.2156,283.2603,80.1745,279.9445,-6.7023e-05,-1.354e-05,0.0,0 STARLINK-4595,1 53627U 22104AR  23111.17230559 -.00001354  00000-0 -67023-4 0  9999,2 53627  53.2156 283.2603 0001756  80.1745 279.9445 15.08825358 36021,6917.925,95.438,541.005,538.575,0.0
53627.0,STARLINK-4595,PAYLOAD,2023-04-21 12:05:02,15.08828143,7.32e-05,53.2173,281.7762,92.0477,268.0599,-6.9536e-05,-1.394e-05,0.0,0 STARLINK-4595,1 53627U 22104AR  23111.50350316 -.00001394  00000-0 -69536-4 0  9995,2 53627  53.2173 281.7762 0000732  92.0477 268.0599 15.08828143 36761,6917.917,95.438,540.288,539.275,0.0
53627.0,STARLINK-4595,PAYLOAD,2023-04-21 20:01:57,15.08840015,9.03e-05,53.2164,280.2884,85.8827,274.2268,2.7781e-05,1.54e-06,0.0,0 STARLINK-4595,1 53627U 22104AR  23111.83469311  .00000154  00000-0  27781-4 0  9994,2 53627  53.2164 280.2884 0000903  85.8827 274.2268 15.08840015 36123,6917.88,95.438,540.37,539.121,0.0
53627.0,STARLINK-4595,PAYLOAD,2023-04-21 21:37:20,15.08840865,9.2e-05,53.2168,279.9916,89.8252,270.2845,3.7327e-05,3.06e-06,0.0,0 STARLINK-4595,1 53627U 22104AR  23111.90093239  .00000306  00000-0  37327-4 0  9990,2 53627  53.2168 279.9916 0000920  89.8252 270.2845 15.08840865 36820,6917.878,95.437,540.379,539.106,0.0
53627.0,STARLINK-4595,PAYLOAD,2023-04-22 03:58:53,15.08841328,9.41e-05,53.2161,278.8026,88.8115,271.2985,-6.0947e-06,-3.85e-06,0.0,0 STARLINK-4595,1 53627U 22104AR  23112.16589329 -.00000385  00000-0 -60947-5 0  9993,2 53627  53.2161 278.8026 0000941  88.8115 271.2985 15.08841328 36868,6917.876,95.437,540.392,539.09,0.0
53627.0,STARLINK-4595,PAYLOAD,2023-04-23 03:49:41,15.08828742,7.48e-05,53.2155,274.3424,90.6448,269.463,-0.00018412,-3.216e-05,0.0,0 STARLINK-4595,1 53627U 22104AR  23113.15950595 -.00003216  00000-0 -18412-3 0  9994,2 53627  53.2155 274.3424 0000748  90.6448 269.4630 15.08828742 36321,6917.915,95.438,540.297,539.262,0.0
53627.0,STARLINK-4595,PAYLOAD,2023-04-23 22:54:17,15.08839688,4.88e-05,53.2159,270.7749,90.4238,269.681,2.3316e-05,8.4e-07,0.0,0 STARLINK-4595,1 53627U 22104AR  23113.95437437  .00000084  00000-0  23316-4 0  9995,2 53627  53.2159 270.7749 0000488  90.4238 269.6810 15.08839688 36447,6917.881,95.438,540.084,539.409,0.0
53627.0,STARLINK-4595,PAYLOAD,2023-04-24 10:02:00,15.0883266,8.77e-05,53.2173,268.6925,70.883,289.2257,-1.4094e-05,-5.12e-06,0.0,0 STARLINK-4595,1 53627U 22104AR  23114.41806376 -.00000512  00000-0 -14094-4 0  9990,2 53627  53.2173 268.6925 0000877  70.8830 289.2257 15.08832660 37208,6917.903,95.438,540.375,539.161,0.0
53627.0,STARLINK-4595,PAYLOAD,2023-04-24 16:23:31,15.08861654,0.0002196,53.2166,267.5056,88.3472,271.7772,0.00021987,3.215e-05,0.0,0 STARLINK-4595,1 53627U 22104AR  23114.68299810  .00003215  00000-0  21987-3 0  9997,2 53627  53.2166 267.5056 0002196  88.3472 271.7772 15.08861654 36555,6917.814,95.436,541.198,538.16,0.0
53627.0,STARLINK-4595,PAYLOAD,2023-04-25 09:52:49,15.08806176,0.0001942,53.2162,264.2337,86.9402,273.1812,-4.5302e-05,-1.008e-05,0.0,0 STARLINK-4595,1 53627U 22104AR  23115.41168594 -.00001008  00000-0 -45302-4 0  9991,2 53627  53.2162 264.2337 0001942  86.9402 273.1812 15.08806176 36663,6917.984,95.44,541.192,538.505,0.0
53627.0,STARLINK-4595,PAYLOAD,2023-04-25 13:03:36,15.08810341,0.0001995,53.2172,263.6376,109.2705,250.8503,-0.00014781,-2.638e-05,0.0,0 STARLINK-4595,1 53627U 22104AR  23115.54416861 -.00002638  00000-0 -14781-3 0  9994,2 53627  53.2172 263.6376 0001995 109.2705 250.8503 15.08810341 37370,6917.971,95.439,541.216,538.456,0.0
53627.0,STARLINK-4595,PAYLOAD,2023-04-25 19:25:08,15.0882101,0.000127,53.2168,262.4468,98.6411,261.4725,-0.00015055,-2.682e-05,0.0,0 STARLINK-4595,1 53627U 22104AR  23115.80912534 -.00002682  00000-0 -15055-3 0  9995,2 53627  53.2168 262.4468 0001270  98.6411 261.4725 15.08821010 36722,6917.938,95.439,540.682,538.925,0.0
53627.0,STARLINK-4595,PAYLOAD,2023-04-26 12:54:21,15.08851163,8.32e-05,53.2145,259.1783,69.563,290.5451,1.0582e-05,-1.19e-06,0.0,0 STARLINK-4595,1 53627U 22104AR  23116.53774596 -.00000119  00000-0  10582-4 0  9993,2 53627  53.2145 259.1783 0000832  69.5630 290.5451 15.08851163 37523,6917.846,95.437,540.287,539.136,0.0
53627.0,STARLINK-4595,PAYLOAD,2023-04-26 19:15:53,15.08847789,0.0001998,53.2165,257.9882,107.3676,252.7534,0.00019983,2.894e-05,0.0,0 STARLINK-4595,1 53627U 22104AR  23116.80270112  .00002894  00000-0  19983-3 0  9992,2 53627  53.2165 257.9882 0001998 107.3676 252.7534 15.08847789 37561,6917.857,95.437,541.104,538.339,0.0
53627.0,STARLINK-4595,PAYLOAD,2023-04-27 11:09:45,15.08823643,0.0001121,53.2154,255.0137,106.5206,253.5909,0.00043429,6.628e-05,0.0,0 STARLINK-4595,1 53627U 22104AR  23117.46510774  .00006628  00000-0  43429-3 0  9997,2 53627  53.2154 255.0137 0001121 106.5206 253.5909 15.08823643 37668,6917.93,95.439,540.571,539.02,0.0
53627.0,STARLINK-4595,PAYLOAD,2023-04-27 19:06:40,15.08846612,0.000158,53.2162,253.5278,106.067,254.0496,0.00036164,5.473e-05,0.0,0 STARLINK-4595,1 53627U 22104AR  23117.79629646  .00005473  00000-0  36164-3 0  9997,2 53627  53.2162 253.5278 0001580 106.0670 254.0496 15.08846612 37023,6917.86,95.437,540.818,538.632,0.0
53627.0,STARLINK-4595,PAYLOAD,2023-04-28 01:28:13,15.08845725,0.000116,53.2146,252.3384,76.2892,283.8229,5.6191e-05,6.07e-06,0.0,0 STARLINK-4595,1 53627U 22104AR  23118.06126589  .00000607  00000-0  56191-4 0  9993,2 53627  53.2146 252.3384 0001160  76.2892 283.8229 15.08845725 37060,6917.863,95.437,540.53,538.925,0.0
53627.0,STARLINK-4595,PAYLOAD,2023-04-28 11:00:32,15.08840897,0.000113,53.2156,250.5529,96.0077,264.1044,-0.00010445,-1.95e-05,0.0,0 STARLINK-4595,1 53627U 22104AR  23118.45871310 -.00001950  00000-0 -10445-3 0  9990,2 53627  53.2156 250.5529 0001130  96.0077 264.1044 15.08840897 37123,6917.878,95.437,540.524,538.961,0.0
53627.0,STARLINK-4595,PAYLOAD,2023-04-28 17:22:04,15.08847254,0.0001415,53.2177,249.3664,97.1809,262.9344,-6.395e-05,-1.306e-05,0.0,0 STARLINK-4595,1 53627U 22104AR  23118.72366677 -.00001306  00000-0 -63950-4 0  9990,2 53627  53.2177 249.3664 0001415  97.1809 262.9344 15.08847254 37160,6917.858,95.437,540.702,538.744,0.0
53627.0,STARLINK-4595,PAYLOAD,2023-04-29 01:19:01,15.08838784,0.0001438,53.2174,247.8787,93.1053,267.0104,-0.00011398,-2.101e-05,0.0,0 STARLINK-4595,1 53627U 22104AR  23119.05487280 -.00002101  00000-0 -11398-3 0  9993,2 53627  53.2174 247.8787 0001438  93.1053 267.0104 15.08838784 37212,6917.884,95.438,540.744,538.754,0.0
